STARLINK-31513          
1 59529U 24073U   26067.38840791 -.00001564  00000+0 -47338-4 0  9993
2 59529  43.0017 322.1256 0000981 277.8235  82.2506 15.27571283106012
LIME                    
1 62648U 25009AR  26068.73906781  .00013254  00000+0  47723-3 0  9995
2 62648  97.3985 151.4831 0001635  35.9029 324.2320 15.28703313 63766
